QIANFAN-17              
1 60395U 24140S   25294.59229719  .00000067  00000+0  85891-4 0  9997
2 60395  88.9748 304.8373 0015002   4.7046 355.4243 13.50970239 61097
QIANFAN-18              
1 60396U 24140T   25294.57170525  .00000055  00000+0  65966-4 0  9994
2 60396  88.9740 304.3768 0013714 347.6317  12.4496 13.50975251 60482
QIANFAN-19              
1 61552U 24185A   25294.58113627  .00000910  00000+0  46989-3 0  9992
2 61552  88.9776  83.9125 0008983 108.3892 251.8273 14.14210809 62290
QIANFAN-20              
1 61553U 24185B   25294.62501912  .00000903  00000+0  51610-3 0  9995
2 61553  88.9774  84.1788 0006978 138.3853 221.7863 14.08761063 62151
QIANFAN-21              
1 61554U 24185C   25294.62793862  .00001206  00000+0  53436-3 0  9998
2 61554  88.9694  83.0775 0011247 162.6578 197.5000 14.22495292 62568
QIANFAN-22              
1 61555U 24185D   25294.60403074  .00000265  00000+0  21810-3 0  9995
2 61555  88.9758  84.9534 0007787 142.3696 217.8021 13.86274596 61719
QIANFAN-23              
1 61556U 24185E   25294.63005313  .00001156  00000+0  57704-3 0  9994
2 61556  88.9770  83.7409 0009687 118.0810 242.1359 14.16208690 62375
QIANFAN-24              
1 61557U 24185F   25294.60440082  .00001288  00000+0  55785-3 0  9991
2 61557  88.9750  83.2342 0011648 105.8388 254.4089 14.23703793 62603
